HAIYANG-2D              
1 48621U 21043A   26168.94313230  .00000058  00000+0  12645-3 0  9992
2 48621  66.0001 302.8166 0011445 269.0531  90.9226 13.83370775256659
2021-050D               
1 48843U 21050D   26168.92682284  .00003440  00000+0  14777-3 0  9998
2 48843  97.3339 244.9451 0003912 258.6415 101.4383 15.23334697279076
TYVAK-0173              
1 48892U 21059P   26168.73792382  .00001378  00000+0  17806-3 0  9995
2 48892  96.0086 244.9576 0010034  38.0764 322.1161 14.81892372268327
MANDRAKE 2 ABLE         
1 48907U 21059AE  26168.49571649  .00017277  00000+0  25906-3 0  9991
2 48907  97.7030 358.3033 0004372   4.7910 355.3384 15.54998571277177
MANDRAKE 2 BAKER        
1 48908U 21059AF  26168.49063130  .00022431  00000+0  28329-3 0  9993
2 48908  97.6999   1.1713 0002911   5.5492 354.5795 15.59575143277347
PACE-1                  
1 48909U 21059AG  26168.53425456  .00077176  00000+0  41708-3 0  9994
2 48909  97.6761   6.7134 0001259 261.9141  98.1982 15.79900241277854
YAM-3                   
1 48915U 21059AN  26168.45495056  .00009738  00000+0  18456-3 0  9998
2 48915  97.6990 355.4269 0004913   9.6816 350.4527 15.48561634277038
FARADAY_PHOENIX         
1 48924U 21059AX  26168.53305341  .00119680  00000+0  68306-3 0  9991
2 48924  97.6809   6.5989 0003110 294.0322  66.0619 15.78555901277710
DEMO8 (TENZING)         
1 48951U 21059CA  26168.49870262  .00016085  00000+0  24119-3 0  9994
2 48951  97.7020   1.9410 0006161 354.7245   5.3942 15.55003266277353
NAPA-2                  
1 48963U 21059CN  26168.25713400  .00337204  50670-4  63365-3 0  9999
2 48963  97.6632   7.4577 0003386 237.0587 123.0366 16.00888611277823
FENGYUN 3E              
1 49008U 21062A   26168.97683248  .00000026  00000+0  33164-4 0  9990
2 49008  98.7487 172.3758 0002819  85.1425 275.0073 14.19904692256691
ISS (NAUKA)             
1 49044U 21066A   26168.83452610  .00010577  00000+0  19787-3 0  9992
2 49044  51.6335 296.8886 0004752 198.5228 161.5588 15.49287853571140
STARLINK-3100           
1 49144U 21082Q   26168.84139777  .00000292  00000+0  32293-4 0  9999
2 49144  69.9999  41.9296 0003040 268.9147  91.1663 14.98328241260983
CUTE                    
1 49263U 21088D   26167.87351093  .00142724  98108-5  41038-3 0  9991
2 49263  97.4164 267.1367 0007724 230.0922 129.9674 15.93099789262500
2021-091B               
1 49316U 21091B   26168.91664069  .00003296  00000+0  16243-3 0  9998
2 49316  97.4467 356.4803 0014549  43.0481 317.1889 15.18559903259092
SDGSAT 1                
1 49387U 21100A   26168.95503685  .00001783  00000+0  86008-4 0  9993
2 49387  97.2625 215.8767 0006427 297.2456  62.8124 15.19929337256032
TEIKYOSAT-4 (OORURI)    
1 49396U 21102B   26168.65096467  .00001308  00000+0  85327-4 0  9993
2 49396  97.3671 198.1165 0010452 295.0163  64.9981 15.09509390252798
Z-SAT                   
1 49399U 21102E   26168.92296377  .00001710  00000+0  86487-4 0  9993
2 49399  97.3315 204.2238 0014960 242.1685 117.8034 15.18264184253557
HIBARI                  
1 49400U 21102F   26168.65926878  .00008733  00000+0  28690-3 0  9995
2 49400  97.3232 214.5572 0011460 190.0440 170.0574 15.31738240254268
KOSEN-1                 
1 49402U 21102H   26168.07610474  .00005879  00000+0  22522-3 0  9991
2 49402  97.3179 210.2355 0013179 200.7965 159.2740 15.26833489254003
GLOBAL-14               
1 49469U 21106A   26167.05543580  .00022875  00000+0  39230-3 0  9997
2 49469  42.0043 297.8062 0015944  10.9627 349.1561 15.50554066257953
GAOFEN-3 02             
1 49495U 21109A   26168.95082318 -.00000101  00000+0 -17526-4 0  9991
2 49495  98.4081 177.0366 0002879  15.3450 344.7827 14.42216826240420
GLOBAL-12               
1 49772U 21115BA  26168.84548946  .00029190  00000+0  45513-3 0  9991
2 49772  53.1956  41.3762 0003107  68.7399 291.3944 15.53637822256003
GLOBAL-13               
1 49773U 21115BB  26168.89549902  .00016348  00000+0  33705-3 0  9991
2 49773  53.1979  51.2213 0003768 112.2616 247.8793 15.46061932255877
GLOBAL-17               
1 49949U 21120A   26168.08873668  .00024547  00000+0  39581-3 0  9990
2 49949  41.9960  49.8817 0015650 256.2807 103.6295 15.52248672254885
GLOBAL-16               
1 49950U 21120B   26167.97317908  .00021455  00000+0  37396-3 0  9996
2 49950  41.9971  54.2975 0013503 247.2895 112.6522 15.50165751254816
XW-3 (CAS-9)            
1 50466U 21131B   26168.95706122  .00000178  00000+0  68524-4 0  9998
2 50466  98.4987 261.3426 0005395  94.8981 265.2824 14.41357252235220
ION SCV-004             
1 50993U 22002K   26168.75775833  .00004269  00000+0  14743-3 0  9992
2 50993  97.2830 226.4057 0007106   5.7067 354.4254 15.30456778245387
ETV-A1                  
1 51060U 22002CE  26168.98797248  .00009016  00000+0  22284-3 0  9991
2 51060  97.2874 235.2909 0004445   0.2874 359.8374 15.40695877245966
BRO-5                   
1 51061U 22002CF  26168.96230698  .00025687  00000+0  50260-3 0  9998
2 51061  97.2993 242.6382 0003685 326.7029  33.3989 15.47398041246371
