OBJECT_NAME,OBJECT_ID,EPOCH,MEAN_MOTION,ECCENTRICITY,INCLINATION,RA_OF_ASC_NODE,ARG_OF_PERICENTER,MEAN_ANOMALY,EPHEMERIS_TYPE,CLASSIFICATION_TYPE,NORAD_CAT_ID,ELEMENT_SET_NO,REV_AT_EPOCH,BSTAR,MEAN_MOTION_DOT,MEAN_MOTION_DDOT
HAIYANG-2D,2021-043A,2026-06-17T22:38:06.630720,13.83370775,.00114451,66.0001,302.8166,269.0531,90.9226,0,U,48621,999,25665,.12644794E-3,.58E-6,0
2021-050D,2021-050D,2026-06-17T22:14:37.493376,15.23334697,.00039122,97.3339,244.9451,258.6415,101.4383,0,U,48843,999,27907,.14777422E-3,.344E-4,0
TYVAK-0173,2021-059P,2026-06-17T17:42:36.618048,14.81892372,.00100345,96.0086,244.9576,38.0764,322.1161,0,U,48892,999,26832,.17806491E-3,.1378E-4,0
MANDRAKE 2 ABLE,2021-059AE,2026-06-17T11:53:49.904736,15.54998571,.00043722,97.7030,358.3033,4.7910,355.3384,0,U,48907,999,27717,.25905684E-3,.17277E-3,0
MANDRAKE 2 BAKER,2021-059AF,2026-06-17T11:46:30.544320,15.59575143,.00029112,97.6999,1.1713,5.5492,354.5795,0,U,48908,999,27734,.28328589E-3,.22431E-3,0
PACE-1,2021-059AG,2026-06-17T12:49:19.593984,15.79900241,.0001259,97.6761,6.7134,261.9141,98.1982,0,U,48909,999,27785,.41708E-3,.77176E-3,0
YAM-3,2021-059AN,2026-06-17T10:55:07.728384,15.48561634,.00049133,97.6990,355.4269,9.6816,350.4527,0,U,48915,999,27703,.18456137E-3,.9738E-4,0
FARADAY_PHOENIX,2021-059AX,2026-06-17T12:47:35.814624,15.78555901,.000311,97.6809,6.5989,294.0322,66.0619,0,U,48924,999,27771,.68306E-3,.11968E-2,0
DEMO8 (TENZING),2021-059CA,2026-06-17T11:58:07.906368,15.55003266,.00061612,97.7020,1.9410,354.7245,5.3942,0,U,48951,999,27735,.24118868E-3,.16085E-3,0
NAPA-2,2021-059CN,2026-06-17T06:10:16.377600,16.00888611,.00033861,97.6632,7.4577,237.0587,123.0366,0,U,48963,999,27782,.63365148E-3,.337204E-2,.5066995E-4
FENGYUN 3E,2021-062A,2026-06-17T23:26:38.326272,14.19904692,.00028197,98.7487,172.3758,85.1425,275.0073,0,U,49008,999,25669,.33164298E-4,.26E-6,0
ISS (NAUKA),2021-066A,2026-06-17T20:01:43.055040,15.49287853,.00047525,51.6335,296.8886,198.5228,161.5588,0,U,49044,999,57114,.19786693E-3,.10577E-3,0
STARLINK-3100,2021-082Q,2026-06-17T20:11:36.767328,14.98328241,.00030402,69.9999,41.9296,268.9147,91.1663,0,U,49144,999,26098,.32292544E-4,.292E-5,0
CUTE,2021-088D,2026-06-16T20:57:51.344352,15.93099789,.00077245,97.4164,267.1367,230.0922,129.9674,0,U,49263,999,26250,.41037501E-3,.142724E-2,.9810793E-5
2021-091B,2021-091B,2026-06-17T21:59:57.755616,15.18559903,.00145499,97.4467,356.4803,43.0481,317.1889,0,U,49316,999,25909,.16242584E-3,.3296E-4,0
SDGSAT 1,2021-100A,2026-06-17T22:55:15.183840,15.19929337,.00064277,97.2625,215.8767,297.2456,62.8124,0,U,49387,999,25603,.86007674E-4,.1783E-4,0
TEIKYOSAT-4 (OORURI),2021-102B,2026-06-17T15:37:23.347488,15.09509390,.00104528,97.3671,198.1165,295.0163,64.9981,0,U,49396,999,25279,.85327304E-4,.1308E-4,0
Z-SAT,2021-102E,2026-06-17T22:09:04.069728,15.18264184,.00149604,97.3315,204.2238,242.1685,117.8034,0,U,49399,999,25355,.86486694E-4,.171E-4,0
HIBARI,2021-102F,2026-06-17T15:49:20.822592,15.31738240,.00114601,97.3232,214.5572,190.0440,170.0574,0,U,49400,999,25426,.28690322E-3,.8733E-4,0
KOSEN-1,2021-102H,2026-06-17T01:49:35.449536,15.26833489,.00131794,97.3179,210.2355,200.7965,159.2740,0,U,49402,999,25400,.2252164E-3,.5879E-4,0
GLOBAL-14,2021-106A,2026-06-16T01:19:49.653120,15.50554066,.00159442,42.0043,297.8062,10.9627,349.1561,0,U,49469,999,25795,.39230443E-3,.22875E-3,0
GAOFEN-3 02,2021-109A,2026-06-17T22:49:11.122752,14.42216826,.00028794,98.4081,177.0366,15.3450,344.7827,0,U,49495,999,24042,-.17525916E-4,-.101E-5,0
GLOBAL-12,2021-115BA,2026-06-17T20:17:30.289344,15.53637822,.00031075,53.1956,41.3762,68.7399,291.3944,0,U,49772,999,25600,.4551312E-3,.2919E-3,0
GLOBAL-13,2021-115BB,2026-06-17T21:29:31.115328,15.46061932,.00037687,53.1979,51.2213,112.2616,247.8793,0,U,49773,999,25587,.3370532E-3,.16348E-3,0
GLOBAL-17,2021-120A,2026-06-17T02:07:46.849152,15.52248672,.00156501,41.9960,49.8817,256.2807,103.6295,0,U,49949,999,25488,.39581064E-3,.24547E-3,0
GLOBAL-16,2021-120B,2026-06-16T23:21:22.672512,15.50165751,.00135038,41.9971,54.2975,247.2895,112.6522,0,U,49950,999,25481,.37395818E-3,.21455E-3,0
XW-3 (CAS-9),2021-131B,2026-06-17T22:58:10.089408,14.41357252,.00053951,98.4987,261.3426,94.8981,265.2824,0,U,50466,999,23522,.68524187E-4,.178E-5,0
ION SCV-004,2022-002K,2026-06-17T18:11:10.319712,15.30456778,.00071065,97.2830,226.4057,5.7067,354.4254,0,U,50993,999,24538,.14742803E-3,.4269E-4,0
ETV-A1,2022-002CE,2026-06-17T23:42:40.822272,15.40695877,.00044458,97.2874,235.2909,0.2874,359.8374,0,U,51060,999,24596,.22283743E-3,.9016E-4,0
BRO-5,2022-002CF,2026-06-17T23:05:43.323072,15.47398041,.00036859,97.2993,242.6382,326.7029,33.3989,0,U,51061,999,24637,.50260358E-3,.25687E-3,0
